start=new Date('2023-03-20T00:00:00.000Z').valueOf();
sats=[{"MEAN_MOTION":"15.06460101","TLE_LINE2":"2 46164  53.0539 113.3142 0001436  89.8629 270.2524 15.06460101144150","OBJECT_TYPE":"PAYLOAD","TLE_LINE1":"1 46164U 20057AZ  23078.36558498  .00019561  00000-0  13263-2 0  9992","BSTAR":"0.00132630000000","MEAN_MOTION_DDOT":"0.0000000000000","RA_OF_ASC_NODE":"113.3142","PERIAPSIS":"546.035","CENTER_NAME":"EARTH","INCLINATION":"53.0539","ARG_OF_PERICENTER":"89.8629","DECAY_DATE":null,"EPOCH":"2023-03-19T08:46:26.542272","MEAN_ELEMENT_THEORY":"SGP4","LAUNCH_DATE":"2020-08-18","ELEMENT_SET_NO":"999","FILE":"3865049","APOAPSIS":"548.024","ECCENTRICITY":"0.00014360","SITE":"AFETR","COUNTRY_CODE":"US","PERIOD":"95.588","EPHEMERIS_TYPE":"0","RCS_SIZE":"LARGE","CLASSIFICATION_TYPE":"U","MEAN_MOTION_DOT":"0.00019561","NORAD_CAT_ID":"46164","OBJECT_NAME":"STARLINK-1612","SEMIMAJOR_AXIS":"6925.164","TIME_SYSTEM":"UTC","MEAN_ANOMALY":"270.2524","OBJECT_ID":"2020-057AZ","GP_ID":"228440990","REV_AT_EPOCH":"14415","REF_FRAME":"TEME"},{"ECCENTRICITY":"0.00053470","SITE":"AFETR","COUNTRY_CODE":"US","RCS_SIZE":"LARGE","CLASSIFICATION_TYPE":"U","PERIOD":"94.207","EPHEMERIS_TYPE":"0","SEMIMAJOR_AXIS":"6858.292","OBJECT_NAME":"STARLINK-1613","MEAN_MOTION_DOT":"0.00017672","NORAD_CAT_ID":"46165","MEAN_ANOMALY":"343.6695","OBJECT_ID":"2020-057BA","TIME_SYSTEM":"UTC","REF_FRAME":"TEME","REV_AT_EPOCH":"14281","GP_ID":"228473920","MEAN_MOTION":"15.28546976","TLE_LINE2":"2 46165  53.0629 122.5463 0005347  16.4476 343.6695 15.28546976142814","OBJECT_TYPE":"PAYLOAD","MEAN_MOTION_DDOT":"0.0000000000000","BSTAR":"0.00063864000000","TLE_LINE1":"1 46165U 20057BA  23078.83108674  .00017672  00000-0  63864-3 0  9996","PERIAPSIS":"476.490","CENTER_NAME":"EARTH","INCLINATION":"53.0629","RA_OF_ASC_NODE":"122.5463","DECAY_DATE":null,"ARG_OF_PERICENTER":"16.4476","EPOCH":"2023-03-19T19:56:45.894336","MEAN_ELEMENT_THEORY":"SGP4","LAUNCH_DATE":"2020-08-18","ELEMENT_SET_NO":"999","APOAPSIS":"483.824","FILE":"3865354"},{"LAUNCH_DATE":"2020-08-18","MEAN_ELEMENT_THEORY":"SGP4","EPOCH":"2023-03-19T11:36:18.675936","ARG_OF_PERICENTER":"91.4504","DECAY_DATE":null,"FILE":"3865049","APOAPSIS":"548.125","ELEMENT_SET_NO":"999","OBJECT_TYPE":"PAYLOAD","TLE_LINE2":"2 46166  53.0527 152.7871 0001622  91.4504 268.6671 15.06469248142358","MEAN_MOTION":"15.06469248","RA_OF_ASC_NODE":"152.7871","INCLINATION":"53.0527","CENTER_NAME":"EARTH","PERIAPSIS":"545.878","TLE_LINE1":"1 46166U 20057BB  23078.48354949  .00026100  00000-0  17613-2 0  9992","MEAN_MOTION_DDOT":"0.0000000000000","BSTAR":"0.00176130000000","REV_AT_EPOCH":"14235","GP_ID":"228439991","REF_FRAME":"TEME","TIME_SYSTEM":"UTC","OBJECT_ID":"2020-057BB","MEAN_ANOMALY":"268.6671","COUNTRY_CODE":"US","SITE":"AFETR","ECCENTRICITY":"0.00016220","MEAN_MOTION_DOT":"0.00026100","OBJECT_NAME":"STARLINK-1615","NORAD_CAT_ID":"46166","SEMIMAJOR_AXIS":"6925.136","EPHEMERIS_TYPE":"0","PERIOD":"95.588","CLASSIFICATION_TYPE":"U","RCS_SIZE":"LARGE"},{"TIME_SYSTEM":"UTC","OBJECT_ID":"2020-057BC","MEAN_ANOMALY":"301.7934","REV_AT_EPOCH":"14241","GP_ID":"228473419","REF_FRAME":"TEME","ECCENTRICITY":"0.00011870","COUNTRY_CODE":"US","SITE":"AFETR","EPHEMERIS_TYPE":"0","PERIOD":"95.593","CLASSIFICATION_TYPE":"U","RCS_SIZE":"LARGE","OBJECT_NAME":"STARLINK-1626","NORAD_CAT_ID":"46167","MEAN_MOTION_DOT":"0.00015184","SEMIMAJOR_AXIS":"6925.399","EPOCH":"2023-03-19T21:30:44.887968","ARG_OF_PERICENTER":"58.3170","DECAY_DATE":null,"LAUNCH_DATE":"2020-08-18","MEAN_ELEMENT_THEORY":"SGP4","ELEMENT_SET_NO":"999","FILE":"3865354","APOAPSIS":"548.086","MEAN_MOTION":"15.06383694","TLE_LINE2":"2 46167  53.0523 150.9337 0001187  58.3170 301.7934 15.06383694142417","OBJECT_TYPE":"PAYLOAD","TLE_LINE1":"1 46167U 20057BC  23078.89635287  .00015184  00000-0  10365-2 0  9992","BSTAR":"0.00103650000000","MEAN_MOTION_DDOT":"0.0000000000000","RA_OF_ASC_NODE":"150.9337","INCLINATION":"53.0523","CENTER_NAME":"EARTH","PERIAPSIS":"546.441"},{"ELEMENT_SET_NO":"999","FILE":"3865049","APOAPSIS":"548.249","EPOCH":"2023-03-19T08:15:55.944000","DECAY_DATE":null,"ARG_OF_PERICENTER":"77.8858","LAUNCH_DATE":"2020-08-18","MEAN_ELEMENT_THEORY":"SGP4","TLE_LINE1":"1 46168U 20057BD  23078.34439750  .00019546  00000-0  13265-2 0  9998","BSTAR":"0.00132650000000","MEAN_MOTION_DDOT":"0.0000000000000","RA_OF_ASC_NODE":"103.4976","INCLINATION":"53.0523","CENTER_NAME":"EARTH","PERIAPSIS":"546.020","MEAN_MOTION":"15.06425708","TLE_LINE2":"2 46168  53.0523 103.4976 0001609  77.8858 282.2311 15.06425708143021","OBJECT_TYPE":"PAYLOAD","TIME_SYSTEM":"UTC","OBJECT_ID":"2020-057BD","MEAN_ANOMALY":"282.2311","GP_ID":"228440492","REV_AT_EPOCH":"14302","REF_FRAME":"TEME","EPHEMERIS_TYPE":"0","PERIOD":"95.591","CLASSIFICATION_TYPE":"U","RCS_SIZE":"LARGE","OBJECT_NAME":"STARLINK-1627","NORAD_CAT_ID":"46168","MEAN_MOTION_DOT":"0.00019546","SEMIMAJOR_AXIS":"6925.270","ECCENTRICITY":"0.00016090","COUNTRY_CODE":"US","SITE":"AFETR"},{"EPOCH":"2023-03-19T12:18:50.798880","DECAY_DATE":null,"ARG_OF_PERICENTER":"81.4890","LAUNCH_DATE":"2020-08-18","MEAN_ELEMENT_THEORY":"SGP4","ELEMENT_SET_NO":"999","FILE":"3865081","APOAPSIS":"548.456","MEAN_MOTION":"15.06458351","TLE_LINE2":"2 46169  53.0549 153.0391 0002053  81.4890 278.6332 15.06458351142956","OBJECT_TYPE":"PAYLOAD","TLE_LINE1":"1 46169U 20057BE  23078.51308795  .00024208  00000-0  16359-2 0  9990","BSTAR":"0.00163590000000","MEAN_MOTION_DDOT":"0.0000000000000","RA_OF_ASC_NODE":"153.0391","INCLINATION":"53.0549","PERIAPSIS":"545.613","CENTER_NAME":"EARTH","TIME_SYSTEM":"UTC","OBJECT_ID":"2020-057BE","MEAN_ANOMALY":"278.6332","GP_ID":"228448008","REV_AT_EPOCH":"14295","REF_FRAME":"TEME","ECCENTRICITY":"0.00020530","COUNTRY_CODE":"US","SITE":"AFETR","EPHEMERIS_TYPE":"0","PERIOD":"95.588","CLASSIFICATION_TYPE":"U","RCS_SIZE":"LARGE","NORAD_CAT_ID":"46169","MEAN_MOTION_DOT":"0.00024208","OBJECT_NAME":"STARLINK-1628","SEMIMAJOR_AXIS":"6925.170"},{"FILE":"3865354","APOAPSIS":"548.611","ELEMENT_SET_NO":"999","MEAN_ELEMENT_THEORY":"SGP4","LAUNCH_DATE":"2020-08-18","EPOCH":"2023-03-19T20:56:14.624736","DECAY_DATE":null,"ARG_OF_PERICENTER":"81.1214","RA_OF_ASC_NODE":"131.0410","INCLINATION":"53.0525","PERIAPSIS":"545.536","CENTER_NAME":"EARTH","TLE_LINE1":"1 46171U 20057BG  23078.87239149  .00013897  00000-0  94887-3 0  9993","BSTAR":"0.00094887000000","MEAN_MOTION_DDOT":"0.0000000000000","TLE_LINE2":"2 46171  53.0525 131.0410 0002220  81.1214 279.0026 15.06445582143941","OBJECT_TYPE":"PAYLOAD","MEAN_MOTION":"15.06445582","REV_AT_EPOCH":"14394","GP_ID":"228474168","REF_FRAME":"TEME","TIME_SYSTEM":"UTC","OBJECT_ID":"2020-057BG","MEAN_ANOMALY":"279.0026","NORAD_CAT_ID":"46171","OBJECT_NAME":"STARLINK-1633","MEAN_MOTION_DOT":"0.00013897","SEMIMAJOR_AXIS":"6925.209","EPHEMERIS_TYPE":"0","PERIOD":"95.589","CLASSIFICATION_TYPE":"U","RCS_SIZE":"LARGE","COUNTRY_CODE":"US","SITE":"AFETR","ECCENTRICITY":"0.00022200"},{"ECCENTRICITY":"0.00015670","SITE":"AFETR","COUNTRY_CODE":"US","RCS_SIZE":"LARGE","CLASSIFICATION_TYPE":"U","PERIOD":"95.586","EPHEMERIS_TYPE":"0","SEMIMAJOR_AXIS":"6925.033","NORAD_CAT_ID":"46172","OBJECT_NAME":"STARLINK-1635","MEAN_MOTION_DOT":"0.00027247","MEAN_ANOMALY":"286.3930","OBJECT_ID":"2020-057BH","TIME_SYSTEM":"UTC","REF_FRAME":"TEME","REV_AT_EPOCH":"14387","GP_ID":"228439742","MEAN_MOTION":"15.06502981","TLE_LINE2":"2 46172  53.0527 133.0595 0001567  73.7232 286.3930 15.06502981143874","OBJECT_TYPE":"PAYLOAD","BSTAR":"0.00183590000000","MEAN_MOTION_DDOT":"0.0000000000000","TLE_LINE1":"1 46172U 20057BH  23078.42269219  .00027247  00000-0  18359-2 0  9999","CENTER_NAME":"EARTH","PERIAPSIS":"545.813","INCLINATION":"53.0527","RA_OF_ASC_NODE":"133.0595","ARG_OF_PERICENTER":"73.7232","DECAY_DATE":null,"EPOCH":"2023-03-19T10:08:40.605216","MEAN_ELEMENT_THEORY":"SGP4","LAUNCH_DATE":"2020-08-18","ELEMENT_SET_NO":"999","APOAPSIS":"547.983","FILE":"3865049"},{"LAUNCH_DATE":"2020-08-18","MEAN_ELEMENT_THEORY":"SGP4","EPOCH":"2023-03-19T14:26:09.095424","DECAY_DATE":null,"ARG_OF_PERICENTER":"82.7131","FILE":"3865354","APOAPSIS":"547.963","ELEMENT_SET_NO":"999","OBJECT_TYPE":"PAYLOAD","TLE_LINE2":"2 46173  53.0539 152.2547 0001415  82.7131 277.4019 15.06475224142369","MEAN_MOTION":"15.06475224","RA_OF_ASC_NODE":"152.2547","INCLINATION":"53.0539","CENTER_NAME":"EARTH","PERIAPSIS":"546.003","TLE_LINE1":"1 46173U 20057BJ  23078.60149416  .00026982  00000-0  18197-2 0  9991","BSTAR":"0.00181970000000","MEAN_MOTION_DDOT":"0.0000000000000","GP_ID":"228473170","REV_AT_EPOCH":"14236","REF_FRAME":"TEME","TIME_SYSTEM":"UTC","OBJECT_ID":"2020-057BJ","MEAN_ANOMALY":"277.4019","COUNTRY_CODE":"US","SITE":"AFETR","ECCENTRICITY":"0.00014150","MEAN_MOTION_DOT":"0.00026982","OBJECT_NAME":"STARLINK-1640","NORAD_CAT_ID":"46173","SEMIMAJOR_AXIS":"6925.118","EPHEMERIS_TYPE":"0","PERIOD":"95.587","CLASSIFICATION_TYPE":"U","RCS_SIZE":"LARGE"},{"EPHEMERIS_TYPE":"0","PERIOD":"95.589","CLASSIFICATION_TYPE":"U","RCS_SIZE":"LARGE","MEAN_MOTION_DOT":"0.00033171","NORAD_CAT_ID":"46174","OBJECT_NAME":"STARLINK-1641","SEMIMAJOR_AXIS":"6925.188","ECCENTRICITY":"0.00017240","COUNTRY_CODE":"US","SITE":"AFETR","TIME_SYSTEM":"UTC","OBJECT_ID":"2020-057BK","MEAN_ANOMALY":"295.2145","GP_ID":"228440732","REV_AT_EPOCH":"14234","REF_FRAME":"TEME","TLE_LINE1":"1 46174U 20057BK  23078.47615656  .00033171  00000-0  22322-2 0  9994","BSTAR":"0.00223220000000","MEAN_MOTION_DDOT":"0.0000000000000","RA_OF_ASC_NODE":"152.8183","INCLINATION":"53.0540","CENTER_NAME":"EARTH","PERIAPSIS":"545.859","MEAN_MOTION":"15.06452407","OBJECT_TYPE":"PAYLOAD","TLE_LINE2":"2 46174  53.0540 152.8183 0001724  64.9023 295.2145 15.06452407142343","ELEMENT_SET_NO":"999","FILE":"3865049","APOAPSIS":"548.247","EPOCH":"2023-03-19T11:25:39.926784","DECAY_DATE":null,"ARG_OF_PERICENTER":"64.9023","MEAN_ELEMENT_THEORY":"SGP4","LAUNCH_DATE":"2020-08-18"}];
